     2.01           GLONASS NAV DATA                        RINEX VERSION / TYPE
CCRINEXG V1.4 UX    CDDIS               15-MAR-23 23:33     PGM / RUN BY / DATE 
IGS BROADCAST EPHEMERIS FILE                                COMMENT             
teqc  2020Oct7      UNAVCO Archive Ops  20230315  8:00:     COMMENT             
  2023     3    14   -0.931322574616D-09                    CORR TO SYSTEM TIME 
    18                                                      LEAP SECONDS        
                                                            END OF HEADER       
 6 23  3 14  7 45  0.0-0.999243929982D-04-0.181898940355D-11 0.279000000000D+05
    0.123271567383D+05 0.279665279388D+01-0.931322574616D-09 0.000000000000D+00
   -0.900216992188D+04 0.113116264343D+00 0.000000000000D+00-0.400000000000D+01
    0.204265019531D+05-0.163934993744D+01-0.279396772385D-08 0.000000000000D+00
 7 23  3 14  7 45  0.0 0.517219305038D-04 0.909494701773D-12 0.279000000000D+05
   -0.615946240234D+04 0.300545215607D+01-0.931322574616D-09 0.000000000000D+00
   -0.111043994141D+05 0.334670066833D+00 0.931322574616D-09 0.500000000000D+01
    0.221760288086D+05 0.999858856201D+00-0.931322574616D-09 0.000000000000D+00
 8 23  3 14  7 45  0.0-0.698482617736D-04 0.000000000000D+00 0.279000000000D+05
   -0.209788374023D+05 0.165217971802D+01-0.931322574616D-09 0.000000000000D+00
   -0.782387500000D+04 0.306235313415D+00 0.931322574616D-09 0.600000000000D+01
    0.123122631836D+05 0.302246093750D+01 0.000000000000D+00 0.000000000000D+00
 9 23  3 14  7 45  0.0 0.109081156552D-03 0.272848410532D-11 0.283800000000D+05
    0.145043374023D+05-0.146303176880D+00 0.186264514923D-08 0.000000000000D+00
   -0.210210512695D+05 0.185852050781D-01-0.186264514923D-08-0.200000000000D+01
    0.722858886719D+03 0.353494071960D+01-0.279396772385D-08 0.000000000000D+00
10 23  3 14  7 45  0.0-0.913590192795D-04-0.000000000000D+00 0.283200000000D+05
    0.567118359375D+04 0.100439167023D+01 0.279396772385D-08 0.000000000000D+00
   -0.203826875000D+05-0.166955852509D+01-0.186264514923D-08-0.700000000000D+01
   -0.142044121094D+05 0.280642700195D+01-0.000000000000D+00 0.000000000000D+00
11 23  3 14  7 45  0.0-0.181235373020D-04-0.636646291241D-11 0.270000000000D+05
   -0.750027441406D+04 0.176123332977D+01 0.186264514923D-08 0.000000000000D+00
   -0.829072802734D+04-0.259984493256D+01-0.931322574616D-09 0.000000000000D+00
   -0.229220898438D+05 0.362708091736D+00 0.186264514923D-08 0.000000000000D+00
12 23  3 14  7 45  0.0 0.256542116404D-04 0.000000000000D+00 0.270000000000D+05
   -0.165565576172D+05 0.140801525116D+01 0.000000000000D+00 0.000000000000D+00
    0.960072949219D+04-0.183512401581D+01 0.000000000000D+00-0.100000000000D+01
   -0.168547275391D+05-0.242389392853D+01 0.279396772385D-08 0.000000000000D+00
13 23  3 14  7 45  0.0-0.329464673996D-04 0.000000000000D+00 0.270300000000D+05
   -0.153041630859D+05 0.318698883057D+00-0.931322574616D-09 0.000000000000D+00
    0.202507397461D+05-0.204416275024D+00 0.931322574616D-09-0.200000000000D+01
   -0.256669921875D+04-0.354080104828D+01 0.186264514923D-08 0.000000000000D+00
14 23  3 14  7 45  0.0 0.244202092290D-04-0.000000000000D+00 0.280800000000D+05
   -0.445350732422D+04-0.112804412842D+01-0.186264514923D-08 0.000000000000D+00
    0.197260654297D+05 0.180573272705D+01 0.186264514923D-08-0.700000000000D+01
    0.155427719727D+05-0.261712169647D+01 0.000000000000D+00 0.000000000000D+00
15 23  3 14  7 45  0.0 0.904947519302D-04 0.000000000000D+00 0.271800000000D+05
    0.831141894531D+04-0.179618644714D+01-0.186264514923D-08 0.000000000000D+00
    0.738419921875D+04 0.257642650604D+01 0.931322574616D-09 0.000000000000D+00
    0.229704086914D+05-0.178531646728D+00-0.186264514923D-08 0.000000000000D+00
16 23  3 14  7 45  0.0 0.123493373394D-04 0.909494701773D-12 0.279000000000D+05
    0.163240981445D+05-0.142708110809D+01 0.000000000000D+00 0.000000000000D+00
   -0.948461230469D+04 0.187064456940D+01 0.000000000000D+00-0.100000000000D+01
    0.171720058594D+05 0.238739395142D+01-0.279396772385D-08 0.000000000000D+00
17 23  3 14  7 45  0.0 0.612457282841D-03 0.272848410532D-11 0.270000000000D+05
    0.731234619141D+04-0.179451942444D+00-0.186264514923D-08 0.000000000000D+00
    0.235233046875D+05-0.923635482788D+00 0.931322574616D-09 0.400000000000D+01
    0.669134277344D+04 0.344415950775D+01 0.000000000000D+00 0.000000000000D+00
18 23  3 14  7 45  0.0 0.713681802154D-04 0.909494701773D-12 0.270000000000D+05
    0.133964995117D+05 0.751256942749D+00-0.000000000000D+00 0.000000000000D+00
    0.192199169922D+05 0.117270374298D+01-0.000000000000D+00-0.300000000000D+01
   -0.100036005859D+05 0.325954341888D+01 0.931322574616D-09 0.000000000000D+00
19 23  3 14  7 45  0.0-0.225223600864D-03-0.909494701773D-12 0.270000000000D+05
    0.128157036133D+05 0.119237613678D+01 0.186264514923D-08 0.000000000000D+00
    0.673459765625D+04 0.262502670288D+01-0.186264514923D-08 0.300000000000D+01
   -0.210001049805D+05 0.156982898712D+01 0.931322574616D-09 0.000000000000D+00
20 23  3 14  7 45  0.0-0.893399119377D-04-0.000000000000D+00 0.270000000000D+05
    0.422154882812D+04 0.965455055237D+00 0.279396772385D-08 0.000000000000D+00
   -0.141345659180D+05 0.269057750702D+01-0.186264514923D-08 0.200000000000D+01
   -0.208164414062D+05-0.162592887878D+01 0.000000000000D+00 0.000000000000D+00
21 23  3 14  7 45  0.0-0.380193814635D-03-0.272848410532D-11 0.279000000000D+05
   -0.806252001953D+04 0.685071945190D-01 0.931322574616D-09 0.000000000000D+00
   -0.236676645508D+05 0.721273422241D+00 0.000000000000D+00 0.400000000000D+01
   -0.500677734375D+04-0.352137660980D+01 0.000000000000D+00 0.000000000000D+00
22 23  3 14  7 45  0.0 0.748345628381D-04 0.181898940355D-11 0.279000000000D+05
   -0.130876464844D+05-0.693325042725D+00 0.000000000000D+00 0.000000000000D+00
   -0.190944287109D+05-0.130483818054D+01 0.000000000000D+00-0.300000000000D+01
    0.107630244141D+05-0.316364574432D+01 0.000000000000D+00 0.000000000000D+00
23 23  3 14  7 45  0.0-0.757416710257D-04-0.909494701773D-12 0.279000000000D+05
   -0.116958354492D+05-0.129049301147D+01-0.186264514923D-08 0.000000000000D+00
   -0.159170361328D+04-0.282191658020D+01 0.186264514923D-08 0.300000000000D+01
    0.226064960938D+05-0.864977836609D+00 0.000000000000D+00 0.000000000000D+00
24 23  3 14  7 45  0.0 0.153622590005D-03 0.272848410532D-11 0.279600000000D+05
   -0.380026171875D+04-0.105093288422D+01-0.186264514923D-08 0.000000000000D+00
    0.149217343750D+05-0.257914733887D+01 0.186264514923D-08 0.200000000000D+01
    0.203545278320D+05 0.169522762299D+01 0.000000000000D+00 0.000000000000D+00
25 23  3 14  7 45  0.0 0.576851889491D-04 0.909494701773D-12 0.270000000000D+05
   -0.596695703125D+04 0.193701744080D+00 0.186264514923D-08 0.600000000000D+01
   -0.238156323242D+05 0.939653396606D+00-0.931322574616D-09-0.500000000000D+01
   -0.689037109375D+04-0.341407680512D+01-0.000000000000D+00 0.000000000000D+00
 1 23  3 14  8 15  0.0 0.247266143560D-04 0.000000000000D+00 0.297600000000D+05
   -0.254377602539D+05 0.226334571838D+00-0.931322574616D-09 0.000000000000D+00
    0.863790527344D+03 0.137975692749D+00 0.931322574616D-09 0.100000000000D+01
    0.159198291016D+04 0.355812358856D+01 0.931322574616D-09 0.000000000000D+00
 2 23  3 14  8 15  0.0-0.231461599469D-04-0.000000000000D+00 0.288000000000D+05
   -0.182344199219D+05-0.218364429474D+01 0.000000000000D+00 0.000000000000D+00
    0.801921289062D+04 0.198621749878D+00 0.000000000000D+00-0.400000000000D+01
   -0.159237714844D+05 0.258648300171D+01 0.279396772385D-08 0.000000000000D+00
 3 23  3 14  8 15  0.0 0.741705298424D-04 0.000000000000D+00 0.288000000000D+05
   -0.435995117188D+03-0.316224861145D+01 0.931322574616D-09 0.000000000000D+00
    0.108984477539D+05 0.129120826721D+00-0.000000000000D+00 0.500000000000D+01
   -0.230083710938D+05 0.115555763245D+00 0.279396772385D-08 0.000000000000D+00
 4 23  3 14  8 15  0.0 0.179339200258D-03 0.909494701773D-12 0.288000000000D+05
    0.171597924805D+05-0.237710285187D+01 0.931322574616D-09 0.000000000000D+00
    0.751133789062D+04-0.496854782105D-01-0.186264514923D-08 0.600000000000D+01
   -0.172739360352D+05-0.237928390503D+01 0.000000000000D+00 0.000000000000D+00
 5 23  3 14  8 15  0.0 0.109288841486D-03 0.909494701773D-12 0.288000000000D+05
    0.254077456055D+05-0.293664932251D+00 0.000000000000D+00 0.000000000000D+00
    0.236855957031D+03-0.180335044861D+00-0.186264514923D-08 0.100000000000D+01
   -0.208578173828D+04-0.357080841065D+01-0.186264514923D-08 0.000000000000D+00
 6 23  3 14  8 15  0.0-0.999281182885D-04-0.181898940355D-11 0.297000000000D+05
    0.169334521484D+05 0.227935123444D+01 0.000000000000D+00 0.000000000000D+00
   -0.915079345703D+04-0.254691123962D+00 0.000000000000D+00-0.400000000000D+01
    0.167234160156D+05-0.244848823547D+01-0.279396772385D-08 0.000000000000D+00
 7 23  3 14  8 15  0.0 0.517247244716D-04 0.909494701773D-12 0.297000000000D+05
   -0.575042480469D+03 0.314859294891D+01-0.931322574616D-09 0.000000000000D+00
   -0.108994384766D+05-0.114313125610D+00 0.931322574616D-09 0.500000000000D+01
    0.230999721680D+05 0.200119018555D-01-0.186264514923D-08 0.000000000000D+00
 8 23  3 14  8 15  0.0-0.698473304510D-04 0.000000000000D+00 0.297000000000D+05
   -0.173525966797D+05 0.234453392029D+01-0.931322574616D-09 0.000000000000D+00
   -0.749056396484D+04 0.317974090576D-01 0.931322574616D-09 0.600000000000D+01
    0.172094404297D+05 0.238384342194D+01 0.000000000000D+00 0.000000000000D+00
 9 23  3 14  8 15  0.0 0.109085813165D-03 0.272848410532D-11 0.297000000000D+05
    0.138738432617D+05-0.516172409058D+00 0.000000000000D+00 0.000000000000D+00
   -0.202904243164D+05 0.805345535278D+00-0.931322574616D-09-0.200000000000D+01
    0.697612060547D+04 0.336823272705D+01-0.279396772385D-08 0.000000000000D+00
